ONEWEB-0311             
1 49097U 21075Y   24198.88856266  .00000012  00000+0 -12951-5 0  9993
2 49097  87.9189 145.2958 0002231  93.2037 266.9350 13.17650937141402
ONEWEB-0312             
1 49098U 21075Z   24198.90311758  .00000023  00000+0  26810-4 0  9998
2 49098  87.9186 145.3249 0001799  94.9675 265.1662 13.17648884141380
ONEWEB-0313             
1 49099U 21075AA  24198.88050179  .00000050  00000+0  95695-4 0  9990
2 49099  87.9187 145.3317 0001952  88.4463 271.6892 13.17648586141377
ONEWEB-0314             
1 49100U 21075AB  24198.87402955  .00000018  00000+0  13555-4 0  9994
2 49100  87.9182 145.2895 0001881  93.7599 266.3748 13.17647515141344
ONEWEB-0315             
1 49101U 21075AC  24198.89478529  .00000201  00000+0  52297-3 0  9996
2 49101  87.8951 130.1174 0002123  77.3431 282.7935 13.12442351143319
ONEWEB-0316             
1 49102U 21075AD  24198.81939138 -.00000014  00000+0 -69302-4 0  9997
2 49102  87.9152 114.8921 0002073  83.0508 277.0860 13.18688617144909
ONEWEB-0317             
1 49103U 21075AE  24198.81206252  .00000340  00000+0  90931-3 0  9993
2 49103  87.8955 130.1439 0001851  64.4901 295.6419 13.12442158143321
ONEWEB-0318             
1 49104U 21075AF  24198.81622906  .00000012  00000+0 -26814-5 0  9990
2 49104  87.9149 114.8856 0002126  85.6954 274.4421 13.18688020144863
